[{"OBJECT_NAME":"STARLINK-30223","OBJECT_ID":"2023-119B","EPOCH":"2026-03-09T01:38:18.856320","MEAN_MOTION":15.06195795,"ECCENTRICITY":3.496e-5,"INCLINATION":42.9999,"RA_OF_ASC_NODE":84.8719,"ARG_OF_PERICENTER":174.0802,"MEAN_ANOMALY":186.0046,"EPHEMERIS_TYPE":0,"CLASSIFICATION_TYPE":"U","NORAD_CAT_ID":57603,"ELEMENT_SET_NO":999,"REV_AT_EPOCH":14298,"BSTAR":0.00060034805,"MEAN_MOTION_DOT":8.745e-5,"MEAN_MOTION_DDOT":0},{"OBJECT_NAME":"CZ-6A DEB","OBJECT_ID":"2024-140FV","EPOCH":"2026-03-09T14:13:09.917760","MEAN_MOTION":15.12617909,"ECCENTRICITY":0.0033796,"INCLINATION":89.006,"RA_OF_ASC_NODE":281.0752,"ARG_OF_PERICENTER":172.4402,"MEAN_ANOMALY":187.7356,"EPHEMERIS_TYPE":0,"CLASSIFICATION_TYPE":"U","NORAD_CAT_ID":60794,"ELEMENT_SET_NO":999,"REV_AT_EPOCH":8371,"BSTAR":0.0056743,"MEAN_MOTION_DOT":0.0010168,"MEAN_MOTION_DDOT":0}]
